{"type": "FeatureCollection", "features": [ {"type": "Feature", "properties": {"norad_id": 34031, "name": "COSMOS 2251 DEB", "group": "cosmos-2251-debris", "lat": 72.955367644253, "lon": -171.74139793404046, "alt_km": 701.2109766938556, "timestamp": "2025-12-21T11:31:43.252946+00:00", "meta": {"OBJECT_NAME": "COSMOS 2251 DEB", "OBJECT_ID": "1993-036HS", "EPOCH": "2025-12-21T02:04:08.016960", "MEAN_MOTION": 14.59772675, "ECCENTRICITY": 0.0022928, "INCLINATION": 74.0131, "RA_OF_ASC_NODE": 119.7659, "ARG_OF_PERICENTER": 239.7149, "MEAN_ANOMALY": 293.9227, "EPHEMERIS_TYPE": 0, "CLASSIFICATION_TYPE": "U", "NORAD_CAT_ID": 34031, "ELEMENT_SET_NO": 999, "REV_AT_EPOCH": 88687, "BSTAR": 0.00082453, "MEAN_MOTION_DOT": 3.924e-05, "MEAN_MOTION_DDOT": 0}, "tle": {"line1": "1 34031U 93036HS  25355.08620390  .00003924  00000+0  82453-3 0  9992", "line2": "2 34031  74.0131 119.7659 0022928 239.7149 293.9227 14.59772675886879"}}, "geometry": {"type": "Point", "coordinates": [-171.74139793404046, 72.955367644253]}}, {"type": "Feature", "properties": {"norad_id": 34035, "name": "COSMOS 2251 DEB", "group": "cosmos-2251-debris", "lat": 3.825404211121464, "lon": -26.20445491109209, "alt_km": 693.7830807885666, "timestamp": "2025-12-21T11:31:43.252956+00:00", "meta": {"OBJECT_NAME": "COSMOS 2251 DEB", "OBJECT_ID": "1993-036HW", "EPOCH": "2025-12-20T16:27:56.877408", "MEAN_MOTION": 14.52033624, "ECCENTRICITY": 0.00451767, "INCLINATION": 74.0655, "RA_OF_ASC_NODE": 334.1941, "ARG_OF_PERICENTER": 334.1122, "MEAN_ANOMALY": 199.4071, "EPHEMERIS_TYPE": 0, "CLASSIFICATION_TYPE": "U", "NORAD_CAT_ID": 34035, "ELEMENT_SET_NO": 999, "REV_AT_EPOCH": 88081, "BSTAR": 0.0010888868, "MEAN_MOTION_DOT": 4.435e-05, "MEAN_MOTION_DDOT": 0}, "tle": {"line1": "1 34035U 93036HW  25354.68607497  .00004435  00000+0  10889-2 0  9995", "line2": "2 34035  74.0655 334.1941 0045176 334.1122 199.4071 14.52033624880814"}}, "geometry": {"type": "Point", "coordinates": [-26.20445491109209, 3.825404211121464]}}, {"type": "Feature", "properties": {"norad_id": 34036, "name": "COSMOS 2251 DEB", "group": "cosmos-2251-debris", "lat": -5.353933768112456, "lon": -46.84643438751989, "alt_km": 577.0508585933985, "timestamp": "2025-12-21T11:31:43.252967+00:00", "meta": {"OBJECT_NAME": "COSMOS 2251 DEB", "OBJECT_ID": "1993-036HX", "EPOCH": "2025-12-20T18:38:54.070080", "MEAN_MOTION": 14.9554893, "ECCENTRICITY": 0.00108379, "INCLINATION": 74.0192, "RA_OF_ASC_NODE": 133.035, "ARG_OF_PERICENTER": 162.4424, "MEAN_ANOMALY": 197.7137, "EPHEMERIS_TYPE": 0, "CLASSIFICATION_TYPE": "U", "NORAD_CAT_ID": 34036, "ELEMENT_SET_NO": 999, "REV_AT_EPOCH": 88690, "BSTAR": 0.0022969867, "MEAN_MOTION_DOT": 0.00025561, "MEAN_MOTION_DDOT": 0}, "tle": {"line1": "1 34036U 93036HX  25354.77701470  .00025561  00000+0  22970-2 0  9999", "line2": "2 34036  74.0192 133.0350 0010837 162.4424 197.7137 14.95548930886902"}}, "geometry": {"type": "Point", "coordinates": [-46.84643438751989, -5.353933768112456]}}, {"type": "Feature", "properties": {"norad_id": 34037, "name": "COSMOS 2251 DEB", "group": "cosmos-2251-debris", "lat": 38.72004746962875, "lon": -158.80857098722285, "alt_km": 752.8309138814102, "timestamp": "2025-12-21T11:31:43.252977+00:00", "meta": {"OBJECT_NAME": "COSMOS 2251 DEB", "OBJECT_ID": "1993-036HY", "EPOCH": "2025-12-21T04:11:33.044928", "MEAN_MOTION": 14.34684426, "ECCENTRICITY": 0.0051815, "INCLINATION": 74.0511, "RA_OF_ASC_NODE": 35.0045, "ARG_OF_PERICENTER": 82.3827, "MEAN_ANOMALY": 278.3206, "EPHEMERIS_TYPE": 0, "CLASSIFICATION_TYPE": "U", "NORAD_CAT_ID": 34037, "ELEMENT_SET_NO": 999, "REV_AT_EPOCH": 87838, "BSTAR": 0.00029852, "MEAN_MOTION_DOT": 8.32e-06, "MEAN_MOTION_DDOT": 0}, "tle": {"line1": "1 34037U 93036HY  25355.17468802  .00000832  00000+0  29852-3 0  9995", "line2": "2 34037  74.0511  35.0045 0051815  82.3827 278.3206 14.34684426878388"}}, "geometry": {"type": "Point", "coordinates": [-158.80857098722285, 38.72004746962875]}}, {"type": "Feature", "properties": {"norad_id": 34040, "name": "COSMOS 2251 DEB", "group": "cosmos-2251-debris", "lat": 65.69733810264675, "lon": -168.16567539427928, "alt_km": 1057.9796200883793, "timestamp": "2025-12-21T11:31:43.252987+00:00", "meta": {"OBJECT_NAME": "COSMOS 2251 DEB", "OBJECT_ID": "1993-036JB", "EPOCH": "2025-12-21T04:00:07.817760", "MEAN_MOTION": 13.68386723, "ECCENTRICITY": 0.0343336, "INCLINATION": 73.9556, "RA_OF_ASC_NODE": 51.9384, "ARG_OF_PERICENTER": 3.5907, "MEAN_ANOMALY": 356.7551, "EPHEMERIS_TYPE": 0, "CLASSIFICATION_TYPE": "U", "NORAD_CAT_ID": 34040, "ELEMENT_SET_NO": 999, "REV_AT_EPOCH": 83715, "BSTAR": 0.00051474, "MEAN_MOTION_DOT": 6.41e-06, "MEAN_MOTION_DDOT": 0}, "tle": {"line1": "1 34040U 93036JB  25355.16675715  .00000641  00000+0  51474-3 0  9994", "line2": "2 34040  73.9556  51.9384 0343336   3.5907 356.7551 13.68386723837157"}}, "geometry": {"type": "Point", "coordinates": [-168.16567539427928, 65.69733810264675]}}, {"type": "Feature", "properties": {"norad_id": 34045, "name": "COSMOS 2251 DEB", "group": "cosmos-2251-debris", "lat": 14.70229336110683, "lon": 110.53230174157711, "alt_km": 794.544264824669, "timestamp": "2025-12-21T11:31:43.252998+00:00", "meta": {"OBJECT_NAME": "COSMOS 2251 DEB", "OBJECT_ID": "1993-036JG", "EPOCH": "2025-12-20T21:37:53.851008", "MEAN_MOTION": 14.34072981, "ECCENTRICITY": 0.0026002, "INCLINATION": 74.0395, "RA_OF_ASC_NODE": 295.8978, "ARG_OF_PERICENTER": 17.117, "MEAN_ANOMALY": 39.1043, "EPHEMERIS_TYPE": 0, "CLASSIFICATION_TYPE": "U", "NORAD_CAT_ID": 34045, "ELEMENT_SET_NO": 999, "REV_AT_EPOCH": 88150, "BSTAR": 6.9311e-05, "MEAN_MOTION_DOT": 1.68e-06, "MEAN_MOTION_DDOT": 0}, "tle": {"line1": "1 34045U 93036JG  25354.90131772  .00000168  00000+0  69311-4 0  9994", "line2": "2 34045  74.0395 295.8978 0026002  17.1170  39.1043 14.34072981881502"}}, "geometry": {"type": "Point", "coordinates": [110.53230174157711, 14.70229336110683]}}, {"type": "Feature", "properties": {"norad_id": 34046, "name": "COSMOS 2251 DEB", "group": "cosmos-2251-debris", "lat": -4.950073175532551, "lon": 175.57346767983984, "alt_km": 758.0091745114714, "timestamp": "2025-12-21T11:31:43.253008+00:00", "meta": {"OBJECT_NAME": "COSMOS 2251 DEB", "OBJECT_ID": "1993-036JH", "EPOCH": "2025-12-20T01:44:37.329792", "MEAN_MOTION": 14.46526924, "ECCENTRICITY": 0.00744564, "INCLINATION": 74.0389, "RA_OF_ASC_NODE": 356.7805, "ARG_OF_PERICENTER": 78.006, "MEAN_ANOMALY": 338.5486, "EPHEMERIS_TYPE": 0, "CLASSIFICATION_TYPE": "U", "NORAD_CAT_ID": 34046, "ELEMENT_SET_NO": 999, "REV_AT_EPOCH": 87932, "BSTAR": 0.00078666467, "MEAN_MOTION_DOT": 2.906e-05, "MEAN_MOTION_DDOT": 0}, "tle": {"line1": "1 34046U 93036JH  25354.07265428  .00002906  00000+0  78666-3 0  9993", "line2": "2 34046  74.0389 356.7805 0074456  78.0060 338.5486 14.46526924879320"}}, "geometry": {"type": "Point", "coordinates": [175.57346767983984, -4.950073175532551]}}, {"type": "Feature", "properties": {"norad_id": 34050, "name": "COSMOS 2251 DEB", "group": "cosmos-2251-debris", "lat": -72.72025068443932, "lon": -71.43216575144874, "alt_km": 1032.9552298584376, "timestamp": "2025-12-21T11:31:43.253019+00:00", "meta": {"OBJECT_NAME": "COSMOS 2251 DEB", "OBJECT_ID": "1993-036JM", "EPOCH": "2025-12-20T17:32:29.256288", "MEAN_MOTION": 13.96197358, "ECCENTRICITY": 0.02146949, "INCLINATION": 74.0882, "RA_OF_ASC_NODE": 356.3442, "ARG_OF_PERICENTER": 58.6067, "MEAN_ANOMALY": 54.2106, "EPHEMERIS_TYPE": 0, "CLASSIFICATION_TYPE": "U", "NORAD_CAT_ID": 34050, "ELEMENT_SET_NO": 999, "REV_AT_EPOCH": 85543, "BSTAR": 0.0005258601, "MEAN_MOTION_DOT": 8.56e-06, "MEAN_MOTION_DDOT": 0}, "tle": {"line1": "1 34050U 93036JM  25354.73089417  .00000856  00000+0  52586-3 0  9998", "line2": "2 34050  74.0882 356.3442 0214694  58.6067  54.2106 13.96197358855433"}}, "geometry": {"type": "Point", "coordinates": [-71.43216575144874, -72.72025068443932]}}, {"type": "Feature", "properties": {"norad_id": 34053, "name": "COSMOS 2251 DEB", "group": "cosmos-2251-debris", "lat": -30.377504330661026, "lon": 57.87001956839956, "alt_km": 1381.8676196473289, "timestamp": "2025-12-21T11:31:43.253029+00:00", "meta": {"OBJECT_NAME": "COSMOS 2251 DEB", "OBJECT_ID": "1993-036JQ", "EPOCH": "2025-12-20T16:41:14.361504", "MEAN_MOTION": 13.49172922, "ECCENTRICITY": 0.04226751, "INCLINATION": 73.8433, "RA_OF_ASC_NODE": 229.3517, "ARG_OF_PERICENTER": 16.5958, "MEAN_ANOMALY": 344.8501, "EPHEMERIS_TYPE": 0, "CLASSIFICATION_TYPE": "U", "NORAD_CAT_ID": 34053, "ELEMENT_SET_NO": 999, "REV_AT_EPOCH": 82791, "BSTAR": 0.00050236834, "MEAN_MOTION_DOT": 5.27e-06, "MEAN_MOTION_DDOT": 0}, "tle": {"line1": "1 34053U 93036JQ  25354.69530511  .00000527  00000+0  50237-3 0  9998", "line2": "2 34053  73.8433 229.3517 0422675  16.5958 344.8501 13.49172922827916"}}, "geometry": {"type": "Point", "coordinates": [57.87001956839956, -30.377504330661026]}}, {"type": "Feature", "properties": {"norad_id": 34056, "name": "COSMOS 2251 DEB", "group": "cosmos-2251-debris", "lat": 64.02615504287381, "lon": -155.17441522973994, "alt_km": 727.9002634797844, "timestamp": "2025-12-21T11:31:43.253040+00:00", "meta": {"OBJECT_NAME": "COSMOS 2251 DEB", "OBJECT_ID": "1993-036JT", "EPOCH": "2025-12-20T06:34:57.855072", "MEAN_MOTION": 14.20580968, "ECCENTRICITY": 0.01237601, "INCLINATION": 74.0586, "RA_OF_ASC_NODE": 62.9046, "ARG_OF_PERICENTER": 108.7592, "MEAN_ANOMALY": 316.3034, "EPHEMERIS_TYPE": 0, "CLASSIFICATION_TYPE": "U", "NORAD_CAT_ID": 34056, "ELEMENT_SET_NO": 999, "REV_AT_EPOCH": 86518, "BSTAR": 0.0004934221, "MEAN_MOTION_DOT": 1.122e-05, "MEAN_MOTION_DDOT": 0}, "tle": {"line1": "1 34056U 93036JT  25354.27428073  .00001122  00000+0  49342-3 0  9991", "line2": "2 34056  74.0586  62.9046 0123760 108.7592 316.3034 14.20580968865189"}}, "geometry": {"type": "Point", "coordinates": [-155.17441522973994, 64.02615504287381]}}]}